start=new Date('2023-06-23T00:00:00.000Z').valueOf();
sats=[{"SEMIMAJOR_AXIS":"6925.354","TLE_LINE1":"1 48023U 21024AY  23173.50012658  .00001577  00000-0  12473-3 0  9999","ELEMENT_SET_NO":"999","DECAY_DATE":null,"REF_FRAME":"TEME","PERIOD":"95.592","RA_OF_ASC_NODE":"101.2372","CLASSIFICATION_TYPE":"U","MEAN_MOTION_DOT":"0.00001577","APOAPSIS":"548.472","GP_ID":"234463455","REV_AT_EPOCH":"12470","TIME_SYSTEM":"UTC","COUNTRY_CODE":"US","PERIAPSIS":"545.965","LAUNCH_DATE":"2021-03-24","NORAD_CAT_ID":"48023","OBJECT_NAME":"STARLINK-2292","MEAN_MOTION_DDOT":"0.0000000000000","ARG_OF_PERICENTER":"83.3913","OBJECT_TYPE":"PAYLOAD","EPHEMERIS_TYPE":"0","RCS_SIZE":"LARGE","MEAN_ELEMENT_THEORY":"SGP4","BSTAR":"0.00012473000000","INCLINATION":"53.0538","TLE_LINE2":"2 48023  53.0538 101.2372 0001810  83.3913 276.7282 15.06398305124704","ECCENTRICITY":"0.00018100","FILE":"3940145","SITE":"AFETR","MEAN_MOTION":"15.06398305","OBJECT_ID":"2021-024AY","MEAN_ANOMALY":"276.7282","EPOCH":"2023-06-22T12:00:10.936512","CENTER_NAME":"EARTH"},{"OBJECT_TYPE":"PAYLOAD","EPHEMERIS_TYPE":"0","ARG_OF_PERICENTER":"59.0479","MEAN_MOTION_DDOT":"0.0000000000000","BSTAR":"0.00068790000000","INCLINATION":"53.0530","MEAN_ELEMENT_THEORY":"SGP4","RCS_SIZE":"LARGE","SITE":"AFETR","MEAN_MOTION":"15.06403125","OBJECT_ID":"2021-024BB","TLE_LINE2":"2 48026  53.0530 106.0415 0002041  59.0479 301.0711 15.06403125124632","FILE":"3940166","ECCENTRICITY":"0.00020410","EPOCH":"2023-06-22T13:05:51.859104","CENTER_NAME":"EARTH","MEAN_ANOMALY":"301.0711","SEMIMAJOR_AXIS":"6925.339","CLASSIFICATION_TYPE":"U","PERIOD":"95.592","RA_OF_ASC_NODE":"106.0415","ELEMENT_SET_NO":"999","TLE_LINE1":"1 48026U 21024BB  23173.54573911  .00009980  00000-0  68790-3 0  9999","DECAY_DATE":null,"REF_FRAME":"TEME","TIME_SYSTEM":"UTC","COUNTRY_CODE":"US","PERIAPSIS":"545.791","GP_ID":"234463463","REV_AT_EPOCH":"12463","APOAPSIS":"548.617","MEAN_MOTION_DOT":"0.00009980","LAUNCH_DATE":"2021-03-24","OBJECT_NAME":"STARLINK-2278","NORAD_CAT_ID":"48026"},{"OBJECT_TYPE":"PAYLOAD","EPHEMERIS_TYPE":"0","MEAN_MOTION_DDOT":"0.0000000000000","ARG_OF_PERICENTER":"80.7542","MEAN_ELEMENT_THEORY":"SGP4","BSTAR":"0.00190690000000","INCLINATION":"53.0541","RCS_SIZE":"LARGE","TLE_LINE2":"2 48027  53.0541  79.7000 0001004  80.7542 279.3561 15.07226162125020","ECCENTRICITY":"0.00010040","FILE":"3940205","SITE":"AFETR","MEAN_MOTION":"15.07226162","OBJECT_ID":"2021-024BC","EPOCH":"2023-06-22T17:09:38.491776","CENTER_NAME":"EARTH","MEAN_ANOMALY":"279.3561","SEMIMAJOR_AXIS":"6922.818","CLASSIFICATION_TYPE":"U","DECAY_DATE":null,"TLE_LINE1":"1 48027U 21024BC  23173.71502884  .00028881  00000-0  19069-2 0  9995","ELEMENT_SET_NO":"999","REF_FRAME":"TEME","PERIOD":"95.540","RA_OF_ASC_NODE":"79.7000","GP_ID":"234464197","REV_AT_EPOCH":"12502","COUNTRY_CODE":"US","TIME_SYSTEM":"UTC","PERIAPSIS":"543.988","MEAN_MOTION_DOT":"0.00028881","APOAPSIS":"545.378","LAUNCH_DATE":"2021-03-24","NORAD_CAT_ID":"48027","OBJECT_NAME":"STARLINK-2300"},{"TLE_LINE2":"2 48028  53.0542  35.4913 0001044  87.9042 272.2067 15.06390483125640","ECCENTRICITY":"0.00010440","FILE":"3940166","SITE":"AFETR","OBJECT_ID":"2021-024BD","MEAN_MOTION":"15.06390483","EPOCH":"2023-06-22T18:07:09.500448","CENTER_NAME":"EARTH","MEAN_ANOMALY":"272.2067","OBJECT_TYPE":"PAYLOAD","EPHEMERIS_TYPE":"0","MEAN_MOTION_DDOT":"0.0000000000000","ARG_OF_PERICENTER":"87.9042","MEAN_ELEMENT_THEORY":"SGP4","BSTAR":"0.00112640000000","INCLINATION":"53.0542","RCS_SIZE":"LARGE","GP_ID":"234463462","REV_AT_EPOCH":"12564","TIME_SYSTEM":"UTC","COUNTRY_CODE":"US","PERIAPSIS":"546.520","MEAN_MOTION_DOT":"0.00016532","APOAPSIS":"547.966","LAUNCH_DATE":"2021-03-24","NORAD_CAT_ID":"48028","OBJECT_NAME":"STARLINK-2264","SEMIMAJOR_AXIS":"6925.378","CLASSIFICATION_TYPE":"U","DECAY_DATE":null,"TLE_LINE1":"1 48028U 21024BD  23173.75497107  .00016532  00000-0  11264-2 0  9990","ELEMENT_SET_NO":"999","REF_FRAME":"TEME","PERIOD":"95.593","RA_OF_ASC_NODE":"35.4913"},{"CLASSIFICATION_TYPE":"U","REF_FRAME":"TEME","TLE_LINE1":"1 48029U 21024BE  23172.81454771  .00022780  00000-0  15425-2 0  9992","DECAY_DATE":null,"ELEMENT_SET_NO":"999","RA_OF_ASC_NODE":"104.3202","PERIOD":"95.591","SEMIMAJOR_AXIS":"6925.293","NORAD_CAT_ID":"48029","OBJECT_NAME":"STARLINK-2299","LAUNCH_DATE":"2021-03-24","REV_AT_EPOCH":"12513","GP_ID":"234486393","PERIAPSIS":"546.193","COUNTRY_CODE":"US","TIME_SYSTEM":"UTC","MEAN_MOTION_DOT":"0.00022780","APOAPSIS":"548.122","MEAN_ELEMENT_THEORY":"SGP4","INCLINATION":"53.0535","BSTAR":"0.00154250000000","RCS_SIZE":"LARGE","OBJECT_TYPE":"PAYLOAD","EPHEMERIS_TYPE":"0","MEAN_MOTION_DDOT":"0.0000000000000","ARG_OF_PERICENTER":"83.8853","CENTER_NAME":"EARTH","EPOCH":"2023-06-21T19:32:56.922144","MEAN_ANOMALY":"276.2295","ECCENTRICITY":"0.00013930","FILE":"3940263","TLE_LINE2":"2 48029  53.0535 104.3202 0001393  83.8853 276.2295 15.06418250125136","OBJECT_ID":"2021-024BE","MEAN_MOTION":"15.06418250","SITE":"AFETR"},{"MEAN_ANOMALY":"280.7760","CENTER_NAME":"EARTH","EPOCH":"2023-06-22T12:07:28.377984","MEAN_MOTION":"15.06411726","OBJECT_ID":"2021-024BF","SITE":"AFETR","FILE":"3940146","ECCENTRICITY":"0.00018470","TLE_LINE2":"2 48030  53.0533 106.2128 0001847  79.3437 280.7760 15.06411726124638","RCS_SIZE":"LARGE","INCLINATION":"53.0533","BSTAR":"0.00073619000000","MEAN_ELEMENT_THEORY":"SGP4","MEAN_MOTION_DDOT":"0.0000000000000","ARG_OF_PERICENTER":"79.3437","OBJECT_TYPE":"PAYLOAD","EPHEMERIS_TYPE":"0","NORAD_CAT_ID":"48030","OBJECT_NAME":"STARLINK-2268","LAUNCH_DATE":"2021-03-24","APOAPSIS":"548.457","MEAN_MOTION_DOT":"0.00010704","PERIAPSIS":"545.899","TIME_SYSTEM":"UTC","COUNTRY_CODE":"US","REV_AT_EPOCH":"12463","GP_ID":"234463004","RA_OF_ASC_NODE":"106.2128","PERIOD":"95.591","REF_FRAME":"TEME","TLE_LINE1":"1 48030U 21024BF  23173.50518956  .00010704  00000-0  73619-3 0  9990","DECAY_DATE":null,"ELEMENT_SET_NO":"999","CLASSIFICATION_TYPE":"U","SEMIMAJOR_AXIS":"6925.313"},{"SEMIMAJOR_AXIS":"6925.411","CLASSIFICATION_TYPE":"U","PERIOD":"95.593","RA_OF_ASC_NODE":"350.1518","DECAY_DATE":null,"TLE_LINE1":"1 48031U 21024BG  23173.74248245  .00018220  00000-0  12396-2 0  9993","ELEMENT_SET_NO":"999","REF_FRAME":"TEME","COUNTRY_CODE":"US","TIME_SYSTEM":"UTC","PERIAPSIS":"546.699","GP_ID":"234462999","REV_AT_EPOCH":"12628","APOAPSIS":"547.853","MEAN_MOTION_DOT":"0.00018220","LAUNCH_DATE":"2021-03-24","OBJECT_NAME":"STARLINK-2267","NORAD_CAT_ID":"48031","OBJECT_TYPE":"PAYLOAD","EPHEMERIS_TYPE":"0","ARG_OF_PERICENTER":"77.7514","MEAN_MOTION_DDOT":"0.0000000000000","BSTAR":"0.00123960000000","INCLINATION":"53.0549","MEAN_ELEMENT_THEORY":"SGP4","RCS_SIZE":"LARGE","SITE":"AFETR","OBJECT_ID":"2021-024BG","MEAN_MOTION":"15.06379713","TLE_LINE2":"2 48031  53.0549 350.1518 0000833  77.7514 282.3568 15.06379713126287","ECCENTRICITY":"0.00008330","FILE":"3940146","EPOCH":"2023-06-22T17:49:10.483680","CENTER_NAME":"EARTH","MEAN_ANOMALY":"282.3568"},{"FILE":"3940146","ECCENTRICITY":"0.00012020","TLE_LINE2":"2 48033  53.0526 101.0932 0001202  67.7669 292.3447 15.06414169124716","MEAN_MOTION":"15.06414169","OBJECT_ID":"2021-024BJ","SITE":"AFETR","CENTER_NAME":"EARTH","EPOCH":"2023-06-22T12:47:56.787360","MEAN_ANOMALY":"292.3447","OBJECT_TYPE":"PAYLOAD","EPHEMERIS_TYPE":"0","ARG_OF_PERICENTER":"67.7669","MEAN_MOTION_DDOT":"0.0000000000000","MEAN_ELEMENT_THEORY":"SGP4","INCLINATION":"53.0526","BSTAR":"0.00042409000000","RCS_SIZE":"LARGE","REV_AT_EPOCH":"12471","GP_ID":"234463470","PERIAPSIS":"546.338","COUNTRY_CODE":"US","TIME_SYSTEM":"UTC","MEAN_MOTION_DOT":"0.00006043","APOAPSIS":"548.003","OBJECT_NAME":"STARLINK-2286","NORAD_CAT_ID":"48033","LAUNCH_DATE":"2021-03-24","SEMIMAJOR_AXIS":"6925.305","CLASSIFICATION_TYPE":"U","REF_FRAME":"TEME","TLE_LINE1":"1 48033U 21024BJ  23173.53329615  .00006043  00000-0  42409-3 0  9992","ELEMENT_SET_NO":"999","DECAY_DATE":null,"RA_OF_ASC_NODE":"101.0932","PERIOD":"95.591"},{"SEMIMAJOR_AXIS":"6925.355","ELEMENT_SET_NO":"999","TLE_LINE1":"1 48034U 21024BK  23173.81711911  .00015256  00000-0  10409-2 0  9998","DECAY_DATE":null,"REF_FRAME":"TEME","PERIOD":"95.592","RA_OF_ASC_NODE":"99.8162","CLASSIFICATION_TYPE":"U","MEAN_MOTION_DOT":"0.00015256","APOAPSIS":"548.076","GP_ID":"234463469","REV_AT_EPOCH":"12475","TIME_SYSTEM":"UTC","COUNTRY_CODE":"US","PERIAPSIS":"546.364","LAUNCH_DATE":"2021-03-24","NORAD_CAT_ID":"48034","OBJECT_NAME":"STARLINK-2288","ARG_OF_PERICENTER":"96.8744","MEAN_MOTION_DDOT":"0.0000000000000","EPHEMERIS_TYPE":"0","OBJECT_TYPE":"PAYLOAD","RCS_SIZE":"LARGE","MEAN_ELEMENT_THEORY":"SGP4","BSTAR":"0.00104090000000","INCLINATION":"53.0538","TLE_LINE2":"2 48034  53.0538  99.8162 0001236  96.8744 263.2385 15.06397838124758","ECCENTRICITY":"0.00012360","FILE":"3940146","SITE":"AFETR","OBJECT_ID":"2021-024BK","MEAN_MOTION":"15.06397838","MEAN_ANOMALY":"263.2385","EPOCH":"2023-06-22T19:36:39.091104","CENTER_NAME":"EARTH"},{"MEAN_MOTION_DOT":"0.00012383","APOAPSIS":"549.295","REV_AT_EPOCH":"12470","GP_ID":"234463473","PERIAPSIS":"545.125","TIME_SYSTEM":"UTC","COUNTRY_CODE":"US","OBJECT_NAME":"STARLINK-2295","NORAD_CAT_ID":"48036","LAUNCH_DATE":"2021-03-24","SEMIMAJOR_AXIS":"6925.345","REF_FRAME":"TEME","ELEMENT_SET_NO":"999","TLE_LINE1":"1 48036U 21024BM  23173.49275902  .00012383  00000-0  84870-3 0  9991","DECAY_DATE":null,"RA_OF_ASC_NODE":"101.2678","PERIOD":"95.592","CLASSIFICATION_TYPE":"U","ECCENTRICITY":"0.00030110","FILE":"3940146","TLE_LINE2":"2 48036  53.0536 101.2678 0003011  76.0074 284.1249 15.06401137124701","MEAN_MOTION":"15.06401137","OBJECT_ID":"2021-024BM","SITE":"AFETR","MEAN_ANOMALY":"284.1249","CENTER_NAME":"EARTH","EPOCH":"2023-06-22T11:49:34.379328","MEAN_MOTION_DDOT":"0.0000000000000","ARG_OF_PERICENTER":"76.0074","EPHEMERIS_TYPE":"0","OBJECT_TYPE":"PAYLOAD","RCS_SIZE":"LARGE","MEAN_ELEMENT_THEORY":"SGP4","INCLINATION":"53.0536","BSTAR":"0.00084870000000"}];
